NANOZOND 1 (RS49S)      
1 57190U 23091AA  24324.91165787  .00031386  00000+0  13834-2 0  9997
2 57190  97.5891  19.0032 0008266 294.4341  65.6032 15.21714662 77200
SITRO-AIS 6 (CHIRKIN)   
1 57192U 23091AC  24324.86802575  .00014643  00000+0  81813-3 0  9996
2 57192  97.5908  16.0517 0014808 311.6249  48.3713 15.13517501 77000
SITRO-AIS 8 (ANOKHIN)   
1 57193U 23091AD  24324.91887930  .00016053  00000+0  87858-3 0  9993
2 57193  97.5903  16.2801 0014596 311.8319  48.1665 15.14237288 77026
SITRO-AIS 7 (FARTUSHNIY)
1 57194U 23091AE  24324.87943940  .00014581  00000+0  81690-3 0  9995
2 57194  97.5909  16.0279 0014762 312.3584  47.6396 15.13423027 77005
AVION KALUGA 650        
1 57195U 23091AF  24324.88394921  .00009675  00000+0  57704-3 0  9993
2 57195  97.5947  16.2714 0011397 303.3802  56.6337 15.11308808 77000
HORS 2                  
1 57196U 23091AG  24324.91121202  .00015207  00000+0  81307-3 0  9992
2 57196  97.5925  17.3486 0010663 297.4391  62.5755 15.15123508 77080
A-SEANSAT-PG1           
1 57197U 23091AH  24324.93335557  .00017367  00000+0  89887-3 0  9995
2 57197  97.5906  17.5013 0010149 300.3161  59.7068 15.16248229 77103
YARILO 3                
1 57198U 23091AJ  24324.88010614  .00070113  00000+0  21747-2 0  9992
2 57198  97.5918  21.5604 0007570 287.5916  72.4498 15.33115394 77346
SITRO-AIS 10 (BURDAEV)  
1 57199U 23091AK  24324.88020107  .00017543  00000+0  89986-3 0  9999
2 57199  97.5921  17.6544 0009837 298.9286  61.0960 15.16564605 77100
SITRO-AIS 9 (SHCHUKIN)  
1 57201U 23091AM  24324.88177827  .00017375  00000+0  89298-3 0  9994
2 57201  97.5917  17.6194 0009822 298.9433  61.0814 15.16499788 77105
UTMN 2 (RS27S)          
1 57203U 23091AP  24324.88834646  .00015853  00000+0  84460-3 0  9990
2 57203  97.5927  17.3626 0010485 294.1253  65.8882 15.15241486 77083
SITRO-AIS 12 (SMIRENNIY)
1 57204U 23091AQ  24324.89023757  .00018329  00000+0  93636-3 0  9991
2 57204  97.5925  17.8233 0009726 292.0048  68.0151 15.16699739 77113
ARCCUBE 1 (RS25S)       
1 57205U 23091AR  24324.89889573  .00039201  00000+0  15775-2 0  9997
2 57205  97.5845  19.4644 0008148 294.1933  65.8452 15.24749325 77241
SITRO-AIS 11 (SHEFFER)  
1 57208U 23091AU  24324.93052447  .00017758  00000+0  90368-3 0  9992
2 57208  97.5921  17.9084 0009592 292.1904  67.8311 15.16844150 77126
H2SAT (HEINRICH HERTZ)  
1 57213U 23093A   24324.29477459  .00000002  00000+0  00000+0 0  9997
2 57213   0.0149 296.3885 0002377 314.1287 274.9269  1.00270398  5150
KUZGTU 1 (RS47S)        
1 57217U 23091AV  24324.92697259  .00014279  00000+0  79121-3 0  9996
2 57217  97.5910  16.3120 0014506 306.3152  53.6740 15.13825029 77021
2023-103B               
1 57422U 23103B   24324.89040209  .00118238  00000+0  51059-3 0  9991
2 57422  96.5509  27.3424 0009139 187.6417 172.4717 15.84573606 75437
FENGYUN 3F              
1 57490U 23111A   24324.89595293  .00000203  00000+0  11641-3 0  9998
2 57490  98.7537  32.4708 0001316  55.8041 304.3260 14.19940421 67369
HJ-2F                   
1 57519U 23116A   24324.93853802  .00019213  00000+0  80628-3 0  9995
2 57519  97.3892 329.2688 0017651 161.2149 198.9743 15.23371749 71404
XRISM                   
1 57800U 23137A   24324.80643509  .00008434  00000+0  58232-3 0  9997
2 57800  31.0021  99.8805 0008472 317.4852  42.5128 15.04445887 66032
VERONIKA                
1 58261U 23174F   24324.89749133  .00048716  00000+0  14699-2 0  9994
2 58261  97.4430  39.2922 0009463  54.3123 305.8999 15.34082049 57469
2024-149A               
1 60468U 24149A   24324.59654018  .00010023  00000+0  46765-3 0  9993
2 60468  97.4305  38.5815 0005252  95.1241 265.0594 15.20031097 14385
WARATAH SEED-1          
1 60469U 24149B   24324.18931723  .00008049  00000+0  37322-3 0  9994
2 60469  97.4292  38.1980 0004013  96.8076 263.3615 15.20317834 14323
PHISAT 2                
1 60470U 24149C   24324.46848798  .00007835  00000+0  36835-3 0  9996
2 60470  97.4334  38.4838 0003102 100.8217 259.3367 15.19850334 14366
LEMUR-2-TOMATOKECHUP    
1 60471U 24149D   24324.18544876  .00010437  00000+0  47878-3 0  9997
2 60471  97.4356  38.2778 0003429 109.2932 250.8674 15.20613032 14328
CONNECTA IOT-1          
1 60472U 24149E   24324.67923496  .00007534  00000+0  36062-3 0  9998
2 60472  97.4337  38.6620 0003590 114.5714 245.5895 15.19240009 14395
LOPEN                   
1 60473U 24149F   24324.17232979  .00012675  00000+0  57587-3 0  9990
2 60473  97.4345  38.2851 0002991 122.0675 238.0851 15.20896545 14327
ROCK                    
1 60474U 24149G   24324.17185424  .00012664  00000+0  57517-3 0  9994
2 60474  97.4347  38.2849 0002968 122.5017 237.6506 15.20907677 14327
CONNECTA IOT-3          
1 60475U 24149H   24324.66752067  .00007456  00000+0  35274-3 0  9991
2 60475  97.4290  38.6170 0005322 116.3108 243.8674 15.19641097 14396
QUBE                    
1 60476U 24149J   24324.47638062  .00016083  00000+0  71301-3 0  9996
2 60476  97.4348  38.6450 0004070 118.6560 241.5085 15.21680088 14373
SATORO-T2               
1 60477U 24149K   24324.16323627  .00024590  00000+0  10343-2 0  9991
2 60477  97.4315  38.4028 0003472 117.0477 243.1115 15.23382735 14330
WREN-1                  
1 60478U 24149L   24324.79139473  .00018093  00000+0  79075-3 0  9994
2 60478  97.4322  38.9581 0007399 136.7406 223.4412 15.22125000 14420
TOMORROW-S1             
1 60479U 24149M   24324.64108787  .00011060  00000+0  50959-3 0  9990
2 60479  97.4302  38.6708 0004440 120.8993 239.2679 15.20442787 14394
FLOCK 4BE-18            
1 60480U 24149N   24324.62468505  .00015527  00000+0  70057-3 0  9990
2 60480  97.4312  38.7088 0006297 131.2583 228.9196 15.21074705 14393
FLOCK 4BE-7             
1 60481U 24149P   24324.62374719  .00015401  00000+0  69693-3 0  9999
2 60481  97.4341  38.7501 0005265 130.7820 229.3873 15.20980663 14393
FLOCK 4BE-4             
1 60482U 24149Q   24324.81554934  .00107795  00000+0  35216-2 0  9991
2 60482  97.4314  39.3939 0003249 166.6768 193.4560 15.31298000 14455
FLOCK 4BE-16            
1 60483U 24149R   24324.61671515  .00016988  00000+0  76225-3 0  9994
2 60483  97.4330  38.7398 0004600 127.6346 232.5308 15.21252926 14391
FLOCK 4BE-26            
1 60484U 24149S   24324.68170360  .00014810  00000+0  66741-3 0  9998
2 60484  97.4298  38.7646 0005426 130.0635 230.1077 15.21130641 14405
TOMORROW-S2             
1 60485U 24149T   24324.48529532  .00011390  00000+0  51479-3 0  9998
2 60485  97.4364  38.6473 0004697 126.7103 233.4565 15.21096480 14374
FLOCK 4BE-36            
1 60486U 24149U   24324.80895473  .00019662  00000+0  87807-3 0  9999
2 60486  97.4304  38.9109 0006181 138.1869 221.9840 15.21375764 14423
FLOCK 4BE-25            
1 60487U 24149V   24324.67994095  .00013638  00000+0  61586-3 0  9998
2 60487  97.4361  38.8459 0004469 129.0875 231.0759 15.21083542 14406
FLOCK 4BE-31            
1 60488U 24149W   24324.47132166  .00014286  00000+0  63653-3 0  9997
2 60488  97.4356  38.6645 0004723 134.5059 225.6563 15.21530855 14376
FLOCK 4BE-20            
1 60489U 24149X   24324.48108430  .00013567  00000+0  61333-3 0  9990
2 60489  97.4284  38.5602 0006030 137.0163 223.1544 15.21039116 14372
FLOCK 4BE-23            
1 60490U 24149Y   24324.62121623  .00014240  00000+0  64684-3 0  9998
2 60490  97.4349  38.7621 0005659 136.1293 224.0393 15.20866833 14396
FLOCK 4BE-15            
1 60491U 24149Z   24324.47768091  .00014580  00000+0  65341-3 0  9996
2 60491  97.4286  38.5613 0005460 138.2609 221.9044 15.21323762 14377
FLOCK 4BE-17            
1 60492U 24149AA  24324.48427920  .00015459  00000+0  69732-3 0  9995
2 60492  97.4362  38.6529 0004896 137.9206 222.2406 15.21090315 14372
NUSAT-50 (NANCY ROMAN)  
1 60493U 24149AB  24324.47707876  .00012669  00000+0  57042-3 0  9997
2 60493  97.4341  38.6366 0005693 137.8694 222.2980 15.21196958 14372
FLOCK 4BE-22            
1 60494U 24149AC  24324.47409145  .00014704  00000+0  65756-3 0  9999
2 60494  97.4300  38.5864 0006388 145.6185 214.5465 15.21390644 14374
FLOCK 4BE-34            
1 60495U 24149AD  24324.48050460  .00012833  00000+0  58267-3 0  9993
2 60495  97.4349  38.6430 0005814 136.8234 223.3459 15.20905087 14371
TYCHE                   
1 60496U 24149AE  24324.90675213  .00009227  00000+0  43270-3 0  9991
2 60496  97.4334  38.9708 0005780 142.2491 217.9151 15.19877270 14430
FLOCK 4BE-32            
1 60497U 24149AF  24324.19653723  .00013472  00000+0  59905-3 0  9994
2 60497  97.4287  38.3276 0005902 142.8985 217.2660 15.21609155 14337
NUSAT-48 (HENRIETTA LE*)
1 60498U 24149AG  24324.80032428  .00015213  00000+0  68234-3 0  9996
2 60498  97.4306  38.9236 0006406 146.6170 213.5471 15.21281810 14423
FLOCK 4BE-30            
1 60499U 24149AH  24324.79148573  .00016038  00000+0  71297-3 0  9993
2 60499  97.4356  39.0065 0004579 141.6034 218.5528 15.21584969 13804
NUSAT-49 (KLARA DAN VO*)
1 60500U 24149AJ  24324.46958325  .00012369  00000+0  55545-3 0  9995
2 60500  97.4335  38.6416 0005436 141.4724 218.6901 15.21294366 14374
FLOCK 4BE-11            
1 60501U 24149AK  24324.79250999  .00014632  00000+0  65228-3 0  9998
2 60501  97.4288  38.9084 0006362 149.3348 210.8261 15.21500379 14427
FLOCK 4BE-33            
1 60502U 24149AL  24324.66400233  .00013954  00000+0  62673-3 0  9990
2 60502  97.4300  38.7912 0006311 155.4096 204.7442 15.21255326 14403
FLOCK 4BE-10            
1 60503U 24149AM  24324.20189906  .00013491  00000+0  60516-3 0  9992
2 60503  97.4355  38.4114 0004734 150.9830 209.1669 15.21314073 14335
YAM-7                   
1 60504U 24149AN  24324.48066221  .00009569  00000+0  43843-3 0  9992
2 60504  97.4346  38.6306 0004950 150.2669 209.8848 15.20672768 14371
FLOCK 4BE-24            
1 60505U 24149AP  24324.64011175  .00014473  00000+0  63824-3 0  9990
2 60505  97.4284  38.8047 0006182 159.9320 200.2160 15.21875308 14408
